STARLINK-2420           
1 47831U 21018AW  22053.91658659  .00001453  00000+0  11647-3 0  9990
2 47831  53.0631  21.5845 0001809  59.5992 300.5176 15.06396656 54429
STARLINK-2422           
1 47832U 21018AX  22053.67377214  .00000133  00000+0  27846-4 0  9992
2 47832  53.0569  37.7234 0001770  59.3366 300.7797 15.06404755 54129
STARLINK-2423           
1 47833U 21018AY  22054.09766591 -.00000611  00000+0 -22118-4 0  9990
2 47833  53.0570  35.8211 0001724  60.3617 299.7544 15.06394052 53850
STARLINK-2424           
1 47834U 21018AZ  22054.37410468 -.00000750  00000+0 -31487-4 0  9994
2 47834  53.0567  34.5755 0001690  58.2774 301.8380 15.06394436 53891
STARLINK-2425           
1 47835U 21018BA  22054.12390879 -.00000362  00000+0 -54289-5 0  9996
2 47835  53.0535  40.6940 0001793  60.5421 299.5747 15.06381468 53789
STARLINK-2426           
1 47836U 21018BB  22054.45057468  .00000810  00000+0  73276-4 0  9999
2 47836  53.0577  34.2304 0001769  55.4503 304.6653 15.06389782 53901
STARLINK-2427           
1 47837U 21018BC  22054.26905410  .00001683  00000+0  13190-3 0  9995
2 47837  53.0549  15.0526 0002070  48.3053 311.8113 15.06396911 54163
STARLINK-2429           
1 47838U 21018BD  22054.08291644 -.00000285  00000+0 -24570-6 0  9999
2 47838  53.0558  35.8762 0001741  63.4317 296.6851 15.06395645 53858
STARLINK-2431           
1 47839U 21018BE  22053.84610821  .00002177  00000+0  16506-3 0  9992
2 47839  53.0547   6.9297 0001795  74.1047 286.0140 15.06394504 54585
STARLINK-2432           
1 47840U 21018BF  22054.12161753 -.00000087  00000+0  13064-4 0  9997
2 47840  53.0560  15.6974 0001907  59.4615 300.6562 15.06396049 54131
STARLINK-2433           
1 47841U 21018BG  22053.58715401 -.00001144  00000+0 -57900-4 0  9995
2 47841  53.0565  18.0944 0001460  63.9493 296.1646 15.06396785 54396
STARLINK-2434           
1 47842U 21018BH  22054.10411192 -.00000323  00000+0 -27941-5 0  9996
2 47842  53.0548  45.7833 0001796  58.7253 301.3912 15.06397258 53716
STARLINK-2435           
1 47843U 21018BJ  22054.47501216  .00001248  00000+0  10267-3 0  9990
2 47843  53.0548  39.1278 0001804  51.6448 308.4703 15.06394761 53841
STARLINK-2446           
1 47844U 21018BK  22054.14189214  .00001305  00000+0  10648-3 0  9992
2 47844  53.0565  35.6131 0001681  64.8216 295.2947 15.06396853 53861
STARLINK-2453           
1 47845U 21018BL  22054.42570359 -.00000514  00000+0 -15591-4 0  9994
2 47845  53.0560  34.3435 0001822  56.6238 303.4925 15.06394475 53901
STARLINK-2456           
1 47846U 21018BM  22053.36046532  .00002155  00000+0  16353-3 0  9995
2 47846  53.0549  39.1231 0001597  61.4731 298.6419 15.06399181 54135
SHIYAN 9 (SY-9)         
1 47851U 21019A   22053.09644413  .00000144  00000+0  13773-2 0  9992
2 47851  19.7624 332.5530 7197580  49.5611 353.5741  2.26103296  7860
YAOGAN 31 K             
1 47854U 21020A   22054.44949491 -.00000066  00000+0  39974-4 0  9998
2 47854  63.4119 341.9901 0034202 347.0045  13.0100 13.45220173 46727
2021-020B               
1 47855U 21020B   22053.84654886 -.00000027  00000+0  10884-3 0  9998
2 47855  63.4147 345.7809 0030845 352.2074   7.8468 13.43829572 46451
YAOGAN 31 L             
1 47856U 21020C   22054.44966916 -.00000072  00000+0  30707-4 0  9993
2 47856  63.4114 342.8546 0033942 347.0023  13.0128 13.45220250 46710
YAOGAN 31 M             
1 47857U 21020D   22054.44967855 -.00000068  00000+0  37138-4 0  9997
2 47857  63.4122 342.0005 0034164 347.2339  12.7822 13.45220732 46724
STARLINK-2258           
1 47860U 21021A   22054.42663035  .00000909  00000+0  79941-4 0  9994
2 47860  53.0555  64.3439 0001754  57.8847 302.2312 15.06399105 53207
STARLINK-2280           
1 47861U 21021B   22054.04652299 -.00000989  00000+0 -47509-4 0  9998
2 47861  53.0556  51.0504 0001409  71.9429 288.1714 15.06396975 53362
STARLINK-2291           
1 47862U 21021C   22054.29209823  .00001826  00000+0  14150-3 0  9991
2 47862  53.0545  44.9471 0001707  67.3812 292.7357 15.06396687 53477
STARLINK-2293           
1 47863U 21021D   22054.05158964  .00000571  00000+0  57217-4 0  9993
2 47863  53.0561  56.0204 0001648  60.7988 299.3166 15.06395085 53291
STARLINK-2304           
1 47864U 21021E   22054.49019384  .00000793  00000+0  72175-4 0  9990
2 47864  53.0550  44.0604 0002249  55.2530 304.8671 15.06392960 53495
STARLINK-2310           
1 47865U 21021F   22054.49021805 -.00000874  00000+0 -39789-4 0  9998
2 47865  53.0556  54.0333 0001747  61.4109 298.7056 15.06397033 53376
STARLINK-2320           
1 47866U 21021G   22054.49390603  .00001172  00000+0  97595-4 0  9993
2 47866  53.0564  54.0338 0001740  53.2863 306.8285 15.06393623 53376
STARLINK-2321           
1 47867U 21021H   22054.35476407  .00002004  00000+0  15342-3 0  9990
2 47867  53.0554  44.6456 0001773  67.3548 292.7628 15.06392797 53492
STARLINK-2323           
1 47868U 21021J   22054.54733774 -.00000043  00000+0  16019-4 0  9990
2 47868  53.0575 353.7794 0001480  77.5398 282.5757 15.06398589 54223
STARLINK-2324           
1 47869U 21021K   22053.68759543 -.00000117  00000+0  11085-4 0  9997
2 47869  53.0550  47.6618 0001883  60.3126 299.8050 15.06400735 53972
STARLINK-2326           
1 47870U 21021L   22054.03730259 -.00001051  00000+0 -51655-4 0  9998
2 47870  53.0528  71.0782 0001863  46.5754 313.5390 15.06397246 53088
STARLINK-2327           
1 47871U 21021M   22054.08199114 -.00001437  00000+0 -77574-4 0  9999
2 47871  53.0544  45.8904 0001554  59.2965 300.8177 15.06394142 53459
STARLINK-2328           
1 47872U 21021N   22054.25368764  .00138085  00000+0  60207-2 0  9999
2 47872  53.0613   2.7731 0001728  41.1270 318.9856 15.21154954 54074
STARLINK-2329           
1 47873U 21021P   22054.46165146 -.00000399  00000+0 -78505-5 0  9993
2 47873  53.0575  44.1685 0001804  55.9569 304.1591 15.06394824 53504
STARLINK-2330           
1 47874U 21021Q   22054.53671850  .00000641  00000+0  61939-4 0  9996
2 47874  53.0548 358.8275 0001826  58.2018 301.9149 15.06397703 54148
STARLINK-2331           
1 47875U 21021R   22054.51969947  .00001291  00000+0  10557-3 0  9993
2 47875  53.0566  53.9199 0001624  63.3293 296.7863 15.06396811 53372
STARLINK-2332           
1 47876U 21021S   22054.50864625 -.00001234  00000+0 -63954-4 0  9999
2 47876  53.0548  53.9743 0001900  50.8395 309.2762 15.06398553 53372
STARLINK-2333           
1 47877U 21021T   22054.39068589  .00000640  00000+0  61838-4 0  9999
2 47877  53.0572  54.4967 0001774  57.5504 302.5656 15.06401182 53358
STARLINK-2335           
1 47878U 21021U   22054.00366883 -.00000253  00000+0  19484-5 0  9998
2 47878  53.0550  56.2335 0001928  48.8093 311.3062 15.06402127 53293
STARLINK-2336           
1 47879U 21021V   22054.46486982 -.00001794  00000+0 -10155-3 0  9998
2 47879  53.0553  69.1716 0001860  55.1853 304.9310 15.06397536 53159
STARLINK-2337           
1 47880U 21021W   22054.43768534  .00001075  00000+0  91061-4 0  9999
2 47880  53.0565  64.2592 0002197  40.7724 319.3429 15.06404032 53211
STARLINK-2339           
1 47881U 21021X   22054.39714763 -.00001598  00000+0 -88466-4 0  9997
2 47881  53.0588  64.4633 0001353  70.3136 289.7999 15.06389551 53214
STARLINK-2340           
1 47882U 21021Y   22054.10687375  .00007527  00000+0  52411-3 0  9991
2 47882  53.0559  55.7612 0002114  72.0611 288.0608 15.06370194 53319
STARLINK-2342           
1 47883U 21021Z   22054.47685389  .00001816  00000+0  14081-3 0  9991
2 47883  53.0538  59.1105 0001544  58.9798 301.1342 15.06395312 53295
STARLINK-2343           
1 47884U 21021AA  22054.52615251 -.00000188  00000+0  62797-5 0  9990
2 47884  53.0561  63.8843 0001575  60.4791 299.6355 15.06398511 53220
STARLINK-2344           
1 47885U 21021AB  22054.52016657 -.00000449  00000+0 -11228-4 0  9999
2 47885  53.0546  68.9044 0001787  61.5740 298.5429 15.06393284 53158
STARLINK-2345           
1 47886U 21021AC  22054.45379321 -.00000647  00000+0 -24570-4 0  9996
2 47886  53.0560  59.2114 0001564  53.2808 306.8325 15.06389113 53280
STARLINK-2346           
1 47887U 21021AD  22054.08014670  .00000793  00000+0  72159-4 0  9995
2 47887  53.0535  65.8894 0001359  63.5807 296.5321 15.06395537 53161
STARLINK-2348           
1 47888U 21021AE  22054.50127647 -.00000074  00000+0  13914-4 0  9999
2 47888  53.0561  53.9944 0001779  56.1339 303.9819 15.06397449 53371
STARLINK-2349           
1 47889U 21021AF  22053.71616338 -.00000260  00000+0  14505-5 0  9997
2 47889  53.0549  57.5241 0001743  52.0409 308.0737 15.06402955 53781
STARLINK-2350           
1 47890U 21021AG  22054.10450231  .00006747  00000+0  16424-3 0  9996
2 47890  53.0565  36.5594 0001133 114.6154 245.4969 15.42180813 53589
STARLINK-2351           
1 47891U 21021AH  22054.05435112 -.00000885  00000+0 -40500-4 0  9994
2 47891  53.0565  66.0041 0001719  60.7206 299.3954 15.06388497 53168
STARLINK-2352           
1 47892U 21021AJ  22054.50820339  .00091571  00000+0  52574-2 0  9996
2 47892  53.0571  63.6638 0001201  89.9296 270.1833 15.11758684 53235
STARLINK-2354           
1 47894U 21021AL  22054.14373107  .00001248  00000+0  10265-3 0  9998
2 47894  53.0552  55.6056 0001514  60.4308 299.6832 15.06403569 53313
STARLINK-2355           
1 47895U 21021AM  22053.49131920 -.00000607  00000+0 -21845-4 0  9998
2 47895  53.0567  58.5436 0001432  65.7171 294.3967 15.06398128 53673
STARLINK-2356           
1 47896U 21021AN  22054.47962623  .00000859  00000+0  76558-4 0  9998
2 47896  53.0564  69.1004 0001646  55.9850 304.1295 15.06390017 53158
STARLINK-2357           
1 47897U 21021AP  22054.08749918 -.00001112  00000+0 -55778-4 0  9992
2 47897  53.0523  55.8529 0001509  59.7045 300.4093 15.06393975 53302
STARLINK-2358           
1 47898U 21021AQ  22054.47915142 -.00000256  00000+0  16902-5 0  9994
2 47898  53.0557  54.1050 0001606  60.7320 299.3830 15.06402612 53367
